[{"OBJECT_NAME":"TIANHUI 2-02A","OBJECT_ID":"2021-074A","EPOCH":"2026-03-09T12:16:24.538368","MEAN_MOTION":15.16780969,"ECCENTRICITY":0.0001796,"INCLINATION":97.4829,"RA_OF_ASC_NODE":73.047,"ARG_OF_PERICENTER":100.814,"MEAN_ANOMALY":259.3296,"EPHEMERIS_TYPE":0,"CLASSIFICATION_TYPE":"U","NORAD_CAT_ID":49071,"ELEMENT_SET_NO":999,"REV_AT_EPOCH":25216,"BSTAR":0.00013771,"MEAN_MOTION_DOT":2.637e-5,"MEAN_MOTION_DDOT":0},{"OBJECT_NAME":"TITAN 3C TRANSTAGE DEB","OBJECT_ID":"1965-082GW","EPOCH":"2026-03-09T12:42:20.172960","MEAN_MOTION":15.14963153,"ECCENTRICITY":0.00030531,"INCLINATION":31.8551,"RA_OF_ASC_NODE":209.3641,"ARG_OF_PERICENTER":343.4922,"MEAN_ANOMALY":16.5634,"EPHEMERIS_TYPE":0,"CLASSIFICATION_TYPE":"U","NORAD_CAT_ID":1961,"ELEMENT_SET_NO":999,"REV_AT_EPOCH":22902,"BSTAR":0.00048671967,"MEAN_MOTION_DOT":9.381e-5,"MEAN_MOTION_DDOT":0}]
